CSS (TIANHE)            
1 48274U 21035A   23275.14563479  .00050211  00000+0  52820-3 0  9992
2 48274  41.4735 224.9429 0009321 167.7904 192.3163 15.63406378138552
